IRIDIUM 171             
1 43929U 19002H   25101.92211688  .00000247  00000+0  81045-4 0  9999
2 43929  86.4041 174.0828 0002329 106.0475 254.0978 14.34219149327141
IRIDIUM 170             
1 43930U 19002J   25101.91006671  .00001154  00000+0  17920-3 0  9992
2 43930  86.6161 173.8557 0002024  99.0513 261.0933 14.72244548335804
IRIDIUM 167             
1 43931U 19002K   25101.91577430  .00000030  00000+0  38287-5 0  9992
2 43931  86.4032 173.8458 0001978 107.5135 252.6277 14.34218136327149
IRIDIUM 181             
1 56726U 23068S   25101.73904540  .00000938  00000+0  27269-3 0  9994
2 56726  86.4509 236.9682 0002324 109.8513 250.2938 14.43315521100205
IRIDIUM 177             
1 56727U 23068T   25101.61873787  .00002971  00000+0  38745-3 0  9990
2 56727  86.2026 173.7090 0002192 105.1411 255.0053 14.80230436102528
IRIDIUM 174             
1 56728U 23068U   25101.90788889  .00002214  00000+0  34405-3 0  9990
2 56728  86.6160 173.9716 0002040  89.5921 270.5530 14.72647396102566
IRIDIUM 178             
1 56729U 23068V   25101.81060889  .00003549  00000+0  46359-3 0  9997
2 56729  86.6609 205.5108 0002386  98.9210 261.2282 14.80234873102551
IRIDIUM 179             
1 56730U 23068W   25101.73765418  .00000692  00000+0  87620-4 0  9993
2 56730  86.6838 213.2135 0001600  89.0812 271.0592 14.80247242102546
